     3.03           N: GNSS NAV DATA    M: MIXED NAV DATA   RINEX VERSION / TYPE
NetR9 5.52          Receiver Operator   20230112 140001 UTC PGM / RUN BY / DATE
GPSA    .2608D-07   .1490D-07  -.1192D-06   .5960D-07       IONOSPHERIC CORR
GPSB    .1475D+06  -.1802D+06   .0000D+00   .1311D+06       IONOSPHERIC CORR
GAL     .1603D+03  -.1172D+00  -.1208D-01   .0000D+00       IONOSPHERIC CORR
BDSA    .3166D-07   .8941D-07  -.1132D-05   .1788D-05       IONOSPHERIC CORR
BDSB    .1290D+06  -.9830D+05  -.5898D+06   .1245D+07       IONOSPHERIC CORR
GPUT   .1862645149D-08  .532907052D-14 589824 2244          TIME SYSTEM CORR
GLUT   .0000000000D+00  .000000000D+00 395118 2244          TIME SYSTEM CORR
GAUT  -.9313225746D-09  .000000000D+00 345600 2244          TIME SYSTEM CORR
BDUT  -.9313225746D-09  .408562073D-13     14  888          TIME SYSTEM CORR
GPGA  -.1018634066D-08 -.177635684D-14 432000 2244          TIME SYSTEM CORR
    18    18  2185     7                                    LEAP SECONDS
                                                            END OF HEADER
C12 2023 01 12 13 00 00  .393735477701D-03  .194360083583D-10  .000000000000D+00
      .100000000000D+01  .416718750000D+02  .307655672237D-08  .234275763591D+01
      .212714076042D-05  .132509449031D-02  .937143340707D-05  .528260782051D+04
      .392400000000D+06 -.512227416039D-08 -.211763227115D+01  .246800482273D-07
      .986711332625D+00  .183781250000D+03 -.165740259267D+01 -.644312552490D-08
      .146434671020D-10  .000000000000D+00  .888000000000D+03  .000000000000D+00
      .200000000000D+01  .000000000000D+00  .330000005100D-08  .000000000000D+00
      .392400000000D+06  .000000000000D+00
C24 2023 01 12 13 00 00 -.550895580091D-03  .497752949968D-10  .000000000000D+00
      .150000000000D+02  .394218750000D+02  .428267839075D-08  .172142879845D+01
      .187382102013D-05  .845831818879D-03  .650109723210D-05  .528263504410D+04
      .392400000000D+06 -.498257577419D-07  .205357333843D+01 -.838190317154D-08
      .945942490210D+00  .221265625000D+03  .741014166603D+00 -.702957852445D-08
      .129648257513D-09  .000000000000D+00  .888000000000D+03  .000000000000D+00
      .200000000000D+01  .100000000000D+01  .469999994479D-08  .470000000000D-08
      .392400000000D+06  .100000000000D+01
E25 2023 01 12 13 40 00 -.597017118707D-03 -.881072992343D-12  .000000000000D+00
      .180000000000D+02  .194375000000D+02  .338156942737D-08  .461027808550D+00
      .955536961555D-06  .265141599812D-03  .445544719696D-05  .544060989952D+04
      .394800000000D+06  .260770320892D-07  .259649699512D+01 -.242143869400D-07
      .970644085805D+00  .246062500000D+03 -.148196307828D+00 -.575809699071D-08
     -.208222959036D-09  .513000000000D+03  .224400000000D+04
      .312000000000D+01  .000000000000D+00  .372529029846D-08  .419095158577D-08
      .395485000000D+06
E25 2023 01 12 13 40 00 -.597017933615D-03 -.881072992343D-12  .000000000000D+00
      .180000000000D+02  .194375000000D+02  .338156942737D-08  .461027808550D+00
      .955536961555D-06  .265141599812D-03  .445544719696D-05  .544060989952D+04
      .394800000000D+06  .260770320892D-07  .259649699512D+01 -.242143869400D-07
      .970644085805D+00  .246062500000D+03 -.148196307828D+00 -.575809699071D-08
     -.208222959036D-09  .258000000000D+03  .224400000000D+04
      .312000000000D+01  .000000000000D+00  .372529029846D-08  .000000000000D+00
      .395520000000D+06
E25 2023 01 12 13 40 00 -.597017118707D-03 -.881072992343D-12  .000000000000D+00
      .180000000000D+02  .194375000000D+02  .338156942737D-08  .461027808550D+00
      .955536961555D-06  .265141599812D-03  .445544719696D-05  .544060989952D+04
      .394800000000D+06  .260770320892D-07  .259649699512D+01 -.242143869400D-07
      .970644085805D+00  .246062500000D+03 -.148196307828D+00 -.575809699071D-08
     -.208222959036D-09  .516000000000D+03  .224400000000D+04
      .312000000000D+01  .000000000000D+00  .372529029846D-08  .419095158577D-08
      .395464000000D+06
E 3 2023 01 12 13 40 00 -.639186764602D-03 -.379429820896D-11  .000000000000D+00
      .180000000000D+02 -.108375000000D+03  .316656047138D-08  .656171211479D+00
     -.503845512867D-05  .209313933738D-03  .979006290436D-05  .544062424660D+04
      .394800000000D+06 -.745058059692D-08  .498503176178D+00  .670552253723D-07
      .958094305548D+00  .128125000000D+03  .958311471348D+00 -.557094633799D-08
     -.935753263594D-10  .513000000000D+03  .224400000000D+04
      .312000000000D+01  .000000000000D+00  .302679836750D-08  .349245965481D-08
      .395845000000D+06
E 3 2023 01 12 13 40 00 -.639187579509D-03 -.379429820896D-11  .000000000000D+00
      .180000000000D+02 -.108375000000D+03  .316656047138D-08  .656171211479D+00
     -.503845512867D-05  .209313933738D-03  .979006290436D-05  .544062424660D+04
      .394800000000D+06 -.745058059692D-08  .498503176178D+00  .670552253723D-07
      .958094305548D+00  .128125000000D+03  .958311471348D+00 -.557094633799D-08
     -.935753263594D-10  .258000000000D+03  .224400000000D+04
      .312000000000D+01  .000000000000D+00  .302679836750D-08  .000000000000D+00
      .395870000000D+06
E 3 2023 01 12 13 40 00 -.639186764602D-03 -.379429820896D-11  .000000000000D+00
      .180000000000D+02 -.108375000000D+03  .316656047138D-08  .656171211479D+00
     -.503845512867D-05  .209313933738D-03  .979006290436D-05  .544062424660D+04
      .394800000000D+06 -.745058059692D-08  .498503176178D+00  .670552253723D-07
      .958094305548D+00  .128125000000D+03  .958311471348D+00 -.557094633799D-08
     -.935753263594D-10  .516000000000D+03  .224400000000D+04
      .312000000000D+01  .000000000000D+00  .302679836750D-08  .349245965481D-08
      .395854000000D+06
E31 2023 01 12 13 40 00 -.513119448442D-03 -.994759830064D-12  .000000000000D+00
      .180000000000D+02  .248437500000D+02  .327299347617D-08  .223485906406D+01
      .109337270260D-05  .250022159889D-03  .513903796673D-05  .544061183548D+04
      .394800000000D+06 -.279396772385D-07  .259644220298D+01  .260770320892D-07
      .970613673201D+00  .234468750000D+03 -.355399916702D+00 -.568559397067D-08
     -.154649298907D-09  .513000000000D+03  .224400000000D+04
      .312000000000D+01  .000000000000D+00  .605359673500D-08  .675208866596D-08
      .395485000000D+06
E31 2023 01 12 13 40 00 -.513120496180D-03 -.994759830064D-12  .000000000000D+00
      .180000000000D+02  .248437500000D+02  .327299347617D-08  .223485906406D+01
      .109337270260D-05  .250022159889D-03  .513903796673D-05  .544061183548D+04
      .394800000000D+06 -.279396772385D-07  .259644220298D+01  .260770320892D-07
      .970613673201D+00  .234468750000D+03 -.355399916702D+00 -.568559397067D-08
     -.154649298907D-09  .258000000000D+03  .224400000000D+04
      .312000000000D+01  .000000000000D+00  .605359673500D-08  .000000000000D+00
      .395520000000D+06
E31 2023 01 12 13 40 00 -.513119448442D-03 -.994759830064D-12  .000000000000D+00
      .180000000000D+02  .248437500000D+02  .327299347617D-08  .223485906406D+01
      .109337270260D-05  .250022159889D-03  .513903796673D-05  .544061183548D+04
      .394800000000D+06 -.279396772385D-07  .259644220298D+01  .260770320892D-07
      .970613673201D+00  .234468750000D+03 -.355399916702D+00 -.568559397067D-08
     -.154649298907D-09  .516000000000D+03  .224400000000D+04
      .312000000000D+01  .000000000000D+00  .605359673500D-08  .675208866596D-08
      .395464000000D+06
E24 2023 01 12 13 40 00 -.105391629040D-02 -.210320649785D-10  .000000000000D+00
      .180000000000D+02  .241250000000D+02  .335978280558D-08  .448557994321D+00
      .113435089588D-05  .747120473534D-03  .500306487083D-05  .544062254143D+04
      .394800000000D+06  .372529029846D-07  .260033635925D+01  .465661287308D-07
      .968521877361D+00  .235375000000D+03  .681439968710D+00 -.576738309180D-08
     -.169649923743D-09  .513000000000D+03  .224400000000D+04
      .312000000000D+01  .000000000000D+00 -.209547579288D-08 -.302679836750D-08
      .395485000000D+06
E24 2023 01 12 13 40 00 -.105391582474D-02 -.210320649785D-10  .000000000000D+00
      .180000000000D+02  .241250000000D+02  .335978280558D-08  .448557994321D+00
      .113435089588D-05  .747120473534D-03  .500306487083D-05  .544062254143D+04
      .394800000000D+06  .372529029846D-07  .260033635925D+01  .465661287308D-07
      .968521877361D+00  .235375000000D+03  .681439968710D+00 -.576738309180D-08
     -.169649923743D-09  .258000000000D+03  .224400000000D+04
      .312000000000D+01  .000000000000D+00 -.209547579288D-08  .000000000000D+00
      .395520000000D+06
E24 2023 01 12 13 40 00 -.105391629040D-02 -.210320649785D-10  .000000000000D+00
      .180000000000D+02  .241250000000D+02  .335978280558D-08  .448557994321D+00
      .113435089588D-05  .747120473534D-03  .500306487083D-05  .544062254143D+04
      .394800000000D+06  .372529029846D-07  .260033635925D+01  .465661287308D-07
      .968521877361D+00  .235375000000D+03  .681439968710D+00 -.576738309180D-08
     -.169649923743D-09  .516000000000D+03  .224400000000D+04
      .312000000000D+01  .000000000000D+00 -.209547579288D-08 -.302679836750D-08
      .395464000000D+06
E 9 2023 01 12 13 40 00 -.797439541202D-03 -.135003119794D-10  .000000000000D+00
      .180000000000D+02 -.101250000000D+03  .307084219862D-08  .295011529411D+01
     -.475719571114D-05  .163511605933D-03  .930018723011D-05  .544061388016D+04
      .394800000000D+06 -.577419996262D-07  .496293112189D+00 -.186264514923D-07
      .964050421438D+00  .144062500000D+03  .248651635876D+00 -.553808782644D-08
     -.714315468392D-10  .513000000000D+03  .224400000000D+04
      .312000000000D+01  .000000000000D+00  .209547579288D-08  .209547579288D-08
      .395485000000D+06
